NORAD_CAT_ID,OBJECT_NAME,OBJECT_TYPE,EPOCH,MEAN_MOTION,ECCENTRICITY,INCLINATION,RA_OF_ASC_NODE,ARG_OF_PERICENTER,MEAN_ANOMALY,BSTAR,MEAN_MOTION_DOT,MEAN_MOTION_DDOT,TLE_LINE0,TLE_LINE1,TLE_LINE2,SEMIMAJOR_AXIS,PERIOD,APOGEE,PERIGEE,DECAYED
56496.0,STARLINK-5526,PAYLOAD,2023-09-24 23:00:17,15.69928033,0.0003692,69.9994,219.4435,267.4891,92.5882,1.3371e-05,1.395e-05,0.0,0 STARLINK-5526,1 56496U 23064BA  23267.95853524  .00001395  00000-0  13371-4 0  9993,2 56496  69.9994 219.4435 0003692 267.4891  92.5882 15.69928033 21916,6737.24,91.724,361.592,356.618,0.0
56496.0,STARLINK-5526,PAYLOAD,2023-09-25 08:09:35,15.70976462,0.0002306,69.9995,218.3656,282.5557,77.5381,0.0011624,0.00148385,0.0,0 STARLINK-5526,1 56496U 23064BA  23268.33999152  .00148385  00000-0  11624-2 0  9992,2 56496  69.9995 218.3656 0002306 282.5557  77.5381 15.70976462 21972,6734.242,91.663,357.66,354.554,0.0
56496.0,STARLINK-5526,PAYLOAD,2023-09-25 22:00:00,15.69931174,0.0003603,70.0005,216.749,262.7239,110.8399,3.2679e-05,3.72e-05,0.0,0 STARLINK-5526,1 56496U 23064BA  23268.91667824  .00003720  00000-0  32679-4 0  9992,2 56496  70.0005 216.7490 0003603 262.7239 110.8399 15.69931174 22063,6737.231,91.724,361.523,356.668,0.0
56496.0,STARLINK-5526,PAYLOAD,2023-09-26 05:35:19,15.69945345,0.0003538,69.9994,215.8609,268.0575,92.0216,-1.0533e-05,-1.48e-05,0.0,0 STARLINK-5526,1 56496U 23064BA  23269.23286384 -.00001480  00000-0 -10533-4 0  9994,2 56496  69.9994 215.8609 0003538 268.0575  92.0216 15.69945345 22118,6737.19,91.723,361.439,356.672,0.0
56496.0,STARLINK-5526,PAYLOAD,2023-09-26 20:52:50,15.69935382,0.0003666,69.9983,214.0686,277.4146,82.6633,1.7737e-05,1.921e-05,0.0,0 STARLINK-5526,1 56496U 23064BA  23269.87003277  .00001921  00000-0  17737-4 0  9993,2 56496  69.9983 214.0686 0003666 277.4146  82.6633 15.69935382 21861,6737.219,91.724,361.554,356.614,0.0
56496.0,STARLINK-5526,PAYLOAD,2023-09-26 22:24:35,15.69933452,0.000341,70.0,213.8895,268.6781,91.4024,1.8783e-05,2.047e-05,0.0,0 STARLINK-5526,1 56496U 23064BA  23269.93374953  .00002047  00000-0  18783-4 0  9994,2 56496  70.0000 213.8895 0003410 268.6781  91.4024 15.69933452 22226,6737.224,91.724,361.387,356.792,0.0
56496.0,STARLINK-5526,PAYLOAD,2023-09-27 06:03:22,15.69914794,0.0003687,70.0004,212.9937,273.7426,86.3348,-1.4593e-05,-1.967e-05,0.0,0 STARLINK-5526,1 56496U 23064BA  23270.25234484 -.00001967  00000-0 -14593-4 0  9992,2 56496  70.0004 212.9937 0003687 273.7426  86.3348 15.69914794 22271,6737.278,91.725,361.627,356.659,0.0
56496.0,STARLINK-5526,PAYLOAD,2023-09-28 04:59:38,15.69942229,0.0003383,70.0008,210.3076,272.8656,87.2152,7.67e-05,9.027e-05,0.0,0 STARLINK-5526,1 56496U 23064BA  23271.20808843  .00009027  00000-0  76700-4 0  9995,2 56496  70.0008 210.3076 0003383 272.8656  87.2152 15.69942229 22423,6737.199,91.723,361.343,356.785,0.0
56496.0,STARLINK-5526,PAYLOAD,2023-09-28 21:48:55,15.6992023,0.0003442,70.0022,208.3369,265.7211,94.3592,1.2283e-05,1.264e-05,0.0,0 STARLINK-5526,1 56496U 23064BA  23271.90897987  .00001264  00000-0  12283-4 0  9990,2 56496  70.0022 208.3369 0003442 265.7211  94.3592 15.69920230 22183,6737.262,91.724,361.446,356.808,0.0
56496.0,STARLINK-5526,PAYLOAD,2023-09-28 23:20:41,15.69919604,0.0003171,70.0018,208.1569,254.4852,105.5993,1.0551e-05,1.056e-05,0.0,0 STARLINK-5526,1 56496U 23064BA  23271.97269689  .00001056  00000-0  10551-4 0  9994,2 56496  70.0018 208.1569 0003171 254.4852 105.5993 15.69919604 22546,6737.264,91.724,361.265,356.993,0.0
56496.0,STARLINK-5526,PAYLOAD,2023-09-29 05:27:40,15.69937058,0.0003591,70.0009,207.4406,251.5532,108.5273,5.9115e-05,6.905e-05,0.0,0 STARLINK-5526,1 56496U 23064BA  23272.22755700  .00006905  00000-0  59115-4 0  9994,2 56496  70.0009 207.4406 0003591 251.5532 108.5273 15.69937058 22588,6737.214,91.723,361.498,356.66,0.0
56496.0,STARLINK-5526,PAYLOAD,2023-09-30 04:23:58,15.69915359,0.0003667,70.0021,204.7548,258.3711,101.7073,-2.7304e-05,-3.494e-05,0.0,0 STARLINK-5526,1 56496U 23064BA  23273.18331120 -.00003494  00000-0 -27304-4 0  9993,2 56496  70.0021 204.7548 0003667 258.3711 101.7073 15.69915359 22737,6737.276,91.725,361.612,356.671,0.0
56496.0,STARLINK-5526,PAYLOAD,2023-09-30 22:44:59,15.6993186,0.000375,70.0004,202.6049,261.8502,98.2269,1.5426e-05,1.643e-05,0.0,0 STARLINK-5526,1 56496U 23064BA  23273.94790752  .00001643  00000-0  15426-4 0  9991,2 56496  70.0004 202.6049 0003750 261.8502  98.2269 15.69931860 22856,6737.229,91.724,361.62,356.567,0.0
56496.0,STARLINK-5526,PAYLOAD,2023-10-01 12:30:45,15.69914952,0.0003548,70.0016,200.9923,265.5833,94.4957,-1.8815e-05,-2.474e-05,0.0,0 STARLINK-5526,1 56496U 23064BA  23274.52136511 -.00002474  00000-0 -18815-4 0  9993,2 56496  70.0016 200.9923 0003548 265.5833  94.4957 15.69914952 22590,6737.277,91.725,361.533,356.752,0.0
56496.0,STARLINK-5526,PAYLOAD,2023-10-01 18:37:46,15.69911373,0.0003756,70.0015,200.275,263.9637,96.1131,1.0783e-05,1.083e-05,0.0,0 STARLINK-5526,1 56496U 23064BA  23274.77623595  .00001083  00000-0  10783-4 0  9992,2 56496  70.0015 200.2750 0003756 263.9637  96.1131 15.69911373 22985,6737.288,91.725,361.683,356.622,0.0
56496.0,STARLINK-5526,PAYLOAD,2023-10-01 21:41:16,15.69921832,0.0003429,70.0021,199.9179,261.1382,98.9425,3.6908e-05,4.227e-05,0.0,0 STARLINK-5526,1 56496U 23064BA  23274.90366540  .00004227  00000-0  36908-4 0  9991,2 56496  70.0021 199.9179 0003429 261.1382  98.9425 15.69921832 22656,6737.258,91.724,361.433,356.812,0.0
56496.0,STARLINK-5526,PAYLOAD,2023-10-02 20:37:33,15.69923572,0.000337,69.9996,197.2311,266.2334,93.8477,1.0693e-05,1.073e-05,0.0,0 STARLINK-5526,1 56496U 23064BA  23275.85941544  .00001073  00000-0  10693-4 0  9998,2 56496  69.9996 197.2311 0003370 266.2334  93.8477 15.69923572 22802,6737.253,91.724,361.388,356.847,0.0
56496.0,STARLINK-5526,PAYLOAD,2023-10-03 04:16:19,15.69927982,0.0003295,69.9996,196.3353,265.798,94.2839,2.4172e-05,2.695e-05,0.0,0 STARLINK-5526,1 56496U 23064BA  23276.17799786  .00002695  00000-0  24172-4 0  9991,2 56496  69.9996 196.3353 0003295 265.7980  94.2839 15.69927982 23206,6737.24,91.724,361.325,356.885,0.0
56496.0,STARLINK-5526,PAYLOAD,2023-10-03 11:55:04,15.69920742,0.0003369,70.0,195.4409,266.3781,93.7029,2.0977e-05,2.31e-05,0.0,0 STARLINK-5526,1 56496U 23064BA  23276.49658548  .00002310  00000-0  20977-4 0  9999,2 56496  70.0000 195.4409 0003369 266.3781  93.7029 15.69920742 23252,6737.261,91.724,361.396,356.856,0.0
56496.0,STARLINK-5526,PAYLOAD,2023-10-03 21:05:35,15.69923294,0.0002855,70.0023,194.3664,267.2184,92.8685,1.1547e-05,1.176e-05,0.0,0 STARLINK-5526,1 56496U 23064BA  23276.87888775  .00001176  00000-0  11547-4 0  9990,2 56496  70.0023 194.3664 0002855 267.2184  92.8685 15.69923294 22964,6737.253,91.724,361.042,357.195,0.0
56496.0,STARLINK-5526,PAYLOAD,2023-10-04 18:30:07,15.69935886,0.0002905,70.002,191.8591,267.6743,92.412,4.6281e-05,5.358e-05,0.0,0 STARLINK-5526,1 56496U 23064BA  23277.77091536  .00005358  00000-0  46281-4 0  9990,2 56496  70.0020 191.8591 0002905 267.6743  92.4120 15.69935886 23458,6737.217,91.723,361.04,357.125,0.0
56496.0,STARLINK-5526,PAYLOAD,2023-10-04 21:33:37,15.69934346,0.0003124,69.9994,191.4974,262.7233,97.3607,3.5032e-05,4.003e-05,0.0,0 STARLINK-5526,1 56496U 23064BA  23277.89834753  .00004003  00000-0  35032-4 0  9997,2 56496  69.9994 191.4974 0003124 262.7233  97.3607 15.69934346 23128,6737.222,91.724,361.192,356.982,0.0
56496.0,STARLINK-5526,PAYLOAD,2023-10-05 03:40:37,15.69933351,0.0003232,70.0008,190.7826,269.1245,90.958,3.3104e-05,3.771e-05,0.0,0 STARLINK-5526,1 56496U 23064BA  23278.15321494  .00003771  00000-0  33104-4 0  9999,2 56496  70.0008 190.7826 0003232 269.1245  90.9580 15.69933351 23167,6737.225,91.724,361.267,356.912,0.0
56496.0,STARLINK-5526,PAYLOAD,2023-10-05 20:29:54,15.69906806,0.0004673,70.0022,188.8146,284.7956,75.2722,-3.0314e-05,-3.855e-05,0.0,0 STARLINK-5526,1 56496U 23064BA  23278.85410832 -.00003855  00000-0 -30314-4 0  9996,2 56496  70.0022 188.8146 0004673 284.7956  75.2722 15.69906806 23628,6737.301,91.725,362.314,356.017,0.0
56496.0,STARLINK-5526,PAYLOAD,2023-10-06 02:36:54,15.69916257,0.0003994,70.0002,188.0952,253.9992,106.0764,-2.0591e-05,-2.688e-05,0.0,0 STARLINK-5526,1 56496U 23064BA  23279.10896860 -.00002688  00000-0 -20591-4 0  9993,2 56496  70.0002 188.0952 0003994 253.9992 106.0764 15.69916257 23660,6737.274,91.725,361.829,356.448,0.0
56496.0,STARLINK-5526,PAYLOAD,2023-10-06 11:47:25,15.69934412,0.0003293,70.0002,187.0205,263.2491,96.833,5.4415e-05,6.338e-05,0.0,0 STARLINK-5526,1 56496U 23064BA  23279.49126757  .00006338  00000-0  54415-4 0  9992,2 56496  70.0002 187.0205 0003293 263.2491  96.8330 15.69934412 23376,6737.222,91.724,361.305,356.868,0.0
56496.0,STARLINK-5526,PAYLOAD,2023-10-06 20:57:56,15.69930888,0.0002696,70.0002,185.9456,260.8987,99.1904,4.496e-05,5.198e-05,0.0,0 STARLINK-5526,1 56496U 23064BA  23279.87357092  .00005198  00000-0  44960-4 0  9999,2 56496  70.0002 185.9456 0002696 260.8987  99.1904 15.69930888 23433,6737.232,91.724,360.913,357.28,0.0
56496.0,STARLINK-5526,PAYLOAD,2023-10-07 01:33:11,15.69935212,0.0003196,70.0003,185.4076,254.1265,105.9579,5.7372e-05,6.694e-05,0.0,0 STARLINK-5526,1 56496U 23064BA  23280.06471830  .00006694  00000-0  57372-4 0  9992,2 56496  70.0003 185.4076 0003196 254.1265 105.9579 15.69935212 23810,6737.219,91.724,361.238,356.931,0.0
56496.0,STARLINK-5526,PAYLOAD,2023-10-07 10:43:42,15.69921285,0.0003128,70.0,184.3344,264.2857,95.7982,1.2823e-05,1.329e-05,0.0,0 STARLINK-5526,1 56496U 23064BA  23280.44702358  .00001329  00000-0  12823-4 0  9998,2 56496  70.0000 184.3344 0003128 264.2857  95.7982 15.69921285 23524,6737.259,91.724,361.232,357.017,0.0
56496.0,STARLINK-5526,PAYLOAD,2023-10-07 18:22:28,15.69924583,0.0003465,69.9998,183.4386,261.5037,98.5766,4.1525e-05,4.783e-05,0.0,0 STARLINK-5526,1 56496U 23064BA  23280.76560612  .00004783  00000-0  41525-4 0  9996,2 56496  69.9998 183.4386 0003465 261.5037  98.5766 15.69924583 23926,6737.25,91.724,361.449,356.78,0.0
